SL-4 R/B                
1 39679U 14021B   25344.20954441  .00018608  00000+0  43987-3 0  9995
2 39679  51.6072  52.8895 0101998 137.0729 223.8271 15.36570973642509
ALOS-2                  
1 39766U 14029A   25344.24061172  .00003995  00000+0  54156-3 0  9997
2 39766  97.9226  79.1222 0001490  99.3243 260.8137 14.79467586623640
YAOGAN-29               
1 41038U 15069A   25344.32295244  .00000748  00000+0  99020-4 0  9998
2 41038  98.0219   7.4866 0000384 350.7266   9.3940 14.82878892542634
ASTRO-H (HITOMI)        
1 41337U 16012A   25344.30943256  .00004854  00000+0  29096-3 0  9997
2 41337  30.9983 213.0404 0009509 154.5752 205.5355 15.09329214538713
HXMT (HUIYAN)           
1 42758U 17034A   25343.95812321  .00004865  00000+0  25623-3 0  9992
2 42758  43.0128 155.0636 0031854  25.4358 334.8050 15.16206777468913
CZ-2C R/B               
1 43521U 18054D   25343.68971457  .00113735  00000+0  77806-3 0  9997
2 43521  35.1321 201.5714 0015845 111.7250 248.5171 15.73265424414570
SAOCOM 1A               
1 43641U 18076A   25344.24152256  .00000095  00000+0  18509-4 0  9995
2 43641  97.8845 168.7000 0001539  81.6876 278.4512 14.82151333388118
H-2A R/B                
1 43682U 18084L   25344.08889888  .00025384  00000+0  68901-3 0  9997
2 43682  98.8780 177.6186 0027543 335.6544  24.3393 15.37218679391996
SAOCOM 1B               
1 46265U 20059A   25344.27277623  .00000691  00000+0  93300-4 0  9997
2 46265  97.8840 167.8312 0001285  85.3950 274.7410 14.82154843285500
CSS (TIANHE)            
1 48274U 21035A   25344.28052965  .00034646  00000+0  43407-3 0  9994
2 48274  41.4682  31.6356 0008802  10.5172 349.5849 15.59014677263648
COSMOS 2550             
1 48865U 21056A   25343.33525535  .00000017  00000+0  63535-5 0  9997
2 48865  67.1455 314.2314 0008326 269.7288  90.2912 15.33838976249607
CZ-2C R/B               
1 52794U 22058K   25344.22583625  .00035321  00000+0  63455-3 0  9994
2 52794  50.1906  56.3678 0045665 188.0814 171.9424 15.48324044196246
