CCSDS_OMM_VERS = 2.0
CREATION_DATE  = 
ORIGINATOR     = 

OBJECT_NAME    = SL-4 R/B
OBJECT_ID      = 2014-021B
CENTER_NAME    = EARTH
REF_FRAME      = TEME
TIME_SYSTEM    = UTC
MEAN_ELEMENT_THEORY = SGP/SGP4

EPOCH          = 2025-12-10T05:01:44.637024
MEAN_MOTION    = 15.36570973
ECCENTRICITY   = .01019982
INCLINATION    = 51.6072
RA_OF_ASC_NODE = 52.8895
ARG_OF_PERICENTER = 137.0729
MEAN_ANOMALY   = 223.8271

EPHEMERIS_TYPE = 0
CLASSIFICATION_TYPE = U
NORAD_CAT_ID   = 39679
ELEMENT_SET_NO = 999
REV_AT_EPOCH   = 64250
BSTAR          = .43986586E-3
MEAN_MOTION_DOT = .18608E-3
MEAN_MOTION_DDOT = 0

CCSDS_OMM_VERS = 2.0
CREATION_DATE  = 
ORIGINATOR     = 

OBJECT_NAME    = ALOS-2
OBJECT_ID      = 2014-029A
CENTER_NAME    = EARTH
REF_FRAME      = TEME
TIME_SYSTEM    = UTC
MEAN_ELEMENT_THEORY = SGP/SGP4

EPOCH          = 2025-12-10T05:46:28.852608
MEAN_MOTION    = 14.79467586
ECCENTRICITY   = .00014906
INCLINATION    = 97.9226
RA_OF_ASC_NODE = 79.1222
ARG_OF_PERICENTER = 99.3243
MEAN_ANOMALY   = 260.8137

EPHEMERIS_TYPE = 0
CLASSIFICATION_TYPE = U
NORAD_CAT_ID   = 39766
ELEMENT_SET_NO = 999
REV_AT_EPOCH   = 62364
BSTAR          = .54156257E-3
MEAN_MOTION_DOT = .3995E-4
MEAN_MOTION_DDOT = 0

CCSDS_OMM_VERS = 2.0
CREATION_DATE  = 
ORIGINATOR     = 

OBJECT_NAME    = YAOGAN-29
OBJECT_ID      = 2015-069A
CENTER_NAME    = EARTH
REF_FRAME      = TEME
TIME_SYSTEM    = UTC
MEAN_ELEMENT_THEORY = SGP/SGP4

EPOCH          = 2025-12-10T07:45:03.090816
MEAN_MOTION    = 14.82878892
ECCENTRICITY   = .0000384
INCLINATION    = 98.0219
RA_OF_ASC_NODE = 7.4866
ARG_OF_PERICENTER = 350.7266
MEAN_ANOMALY   = 9.3940

EPHEMERIS_TYPE = 0
CLASSIFICATION_TYPE = U
NORAD_CAT_ID   = 41038
ELEMENT_SET_NO = 999
REV_AT_EPOCH   = 54263
BSTAR          = .99019777E-4
MEAN_MOTION_DOT = .748E-5
MEAN_MOTION_DDOT = 0

CCSDS_OMM_VERS = 2.0
CREATION_DATE  = 
ORIGINATOR     = 

OBJECT_NAME    = ASTRO-H (HITOMI)
OBJECT_ID      = 2016-012A
CENTER_NAME    = EARTH
REF_FRAME      = TEME
TIME_SYSTEM    = UTC
MEAN_ELEMENT_THEORY = SGP/SGP4

EPOCH          = 2025-12-10T07:25:34.973184
MEAN_MOTION    = 15.09329214
ECCENTRICITY   = .00095095
INCLINATION    = 30.9983
RA_OF_ASC_NODE = 213.0404
ARG_OF_PERICENTER = 154.5752
MEAN_ANOMALY   = 205.5355

EPHEMERIS_TYPE = 0
CLASSIFICATION_TYPE = U
NORAD_CAT_ID   = 41337
ELEMENT_SET_NO = 999
REV_AT_EPOCH   = 53871
BSTAR          = .29095797E-3
MEAN_MOTION_DOT = .4854E-4
MEAN_MOTION_DDOT = 0

CCSDS_OMM_VERS = 2.0
CREATION_DATE  = 
ORIGINATOR     = 

OBJECT_NAME    = HXMT (HUIYAN)
OBJECT_ID      = 2017-034A
CENTER_NAME    = EARTH
REF_FRAME      = TEME
TIME_SYSTEM    = UTC
MEAN_ELEMENT_THEORY = SGP/SGP4

EPOCH          = 2025-12-09T22:59:41.845344
MEAN_MOTION    = 15.16206777
ECCENTRICITY   = .00318547
INCLINATION    = 43.0128
RA_OF_ASC_NODE = 155.0636
ARG_OF_PERICENTER = 25.4358
MEAN_ANOMALY   = 334.8050

EPHEMERIS_TYPE = 0
CLASSIFICATION_TYPE = U
NORAD_CAT_ID   = 42758
ELEMENT_SET_NO = 999
REV_AT_EPOCH   = 46891
BSTAR          = .25623437E-3
MEAN_MOTION_DOT = .4865E-4
MEAN_MOTION_DDOT = 0

CCSDS_OMM_VERS = 2.0
CREATION_DATE  = 
ORIGINATOR     = 

OBJECT_NAME    = CZ-2C R/B
OBJECT_ID      = 2018-054D
CENTER_NAME    = EARTH
REF_FRAME      = TEME
TIME_SYSTEM    = UTC
MEAN_ELEMENT_THEORY = SGP/SGP4

EPOCH          = 2025-12-09T16:33:11.338848
MEAN_MOTION    = 15.73265424
ECCENTRICITY   = .00158452
INCLINATION    = 35.1321
RA_OF_ASC_NODE = 201.5714
ARG_OF_PERICENTER = 111.7250
MEAN_ANOMALY   = 248.5171

EPHEMERIS_TYPE = 0
CLASSIFICATION_TYPE = U
NORAD_CAT_ID   = 43521
ELEMENT_SET_NO = 999
REV_AT_EPOCH   = 41457
BSTAR          = .77805865E-3
MEAN_MOTION_DOT = .113735E-2
MEAN_MOTION_DDOT = 0

CCSDS_OMM_VERS = 2.0
CREATION_DATE  = 
ORIGINATOR     = 

OBJECT_NAME    = SAOCOM 1A
OBJECT_ID      = 2018-076A
CENTER_NAME    = EARTH
REF_FRAME      = TEME
TIME_SYSTEM    = UTC
MEAN_ELEMENT_THEORY = SGP/SGP4

EPOCH          = 2025-12-10T05:47:47.549184
MEAN_MOTION    = 14.82151333
ECCENTRICITY   = .00015392
INCLINATION    = 97.8845
RA_OF_ASC_NODE = 168.7000
ARG_OF_PERICENTER = 81.6876
MEAN_ANOMALY   = 278.4512

EPHEMERIS_TYPE = 0
CLASSIFICATION_TYPE = U
NORAD_CAT_ID   = 43641
ELEMENT_SET_NO = 999
REV_AT_EPOCH   = 38811
BSTAR          = .18509338E-4
MEAN_MOTION_DOT = .95E-6
MEAN_MOTION_DDOT = 0

CCSDS_OMM_VERS = 2.0
CREATION_DATE  = 
ORIGINATOR     = 

OBJECT_NAME    = H-2A R/B
OBJECT_ID      = 2018-084L
CENTER_NAME    = EARTH
REF_FRAME      = TEME
TIME_SYSTEM    = UTC
MEAN_ELEMENT_THEORY = SGP/SGP4

EPOCH          = 2025-12-10T02:08:00.863232
MEAN_MOTION    = 15.37218679
ECCENTRICITY   = .00275436
INCLINATION    = 98.8780
RA_OF_ASC_NODE = 177.6186
ARG_OF_PERICENTER = 335.6544
MEAN_ANOMALY   = 24.3393

EPHEMERIS_TYPE = 0
CLASSIFICATION_TYPE = U
NORAD_CAT_ID   = 43682
ELEMENT_SET_NO = 999
REV_AT_EPOCH   = 39199
BSTAR          = .68900699E-3
MEAN_MOTION_DOT = .25384E-3
MEAN_MOTION_DDOT = 0

CCSDS_OMM_VERS = 2.0
CREATION_DATE  = 
ORIGINATOR     = 

OBJECT_NAME    = SAOCOM 1B
OBJECT_ID      = 2020-059A
CENTER_NAME    = EARTH
REF_FRAME      = TEME
TIME_SYSTEM    = UTC
MEAN_ELEMENT_THEORY = SGP/SGP4

EPOCH          = 2025-12-10T06:32:47.866272
MEAN_MOTION    = 14.82154843
ECCENTRICITY   = .00012851
INCLINATION    = 97.8840
RA_OF_ASC_NODE = 167.8312
ARG_OF_PERICENTER = 85.3950
MEAN_ANOMALY   = 274.7410

EPHEMERIS_TYPE = 0
CLASSIFICATION_TYPE = U
NORAD_CAT_ID   = 46265
ELEMENT_SET_NO = 999
REV_AT_EPOCH   = 28550
BSTAR          = .93300052E-4
MEAN_MOTION_DOT = .691E-5
MEAN_MOTION_DDOT = 0

CCSDS_OMM_VERS = 2.0
CREATION_DATE  = 
ORIGINATOR     = 

OBJECT_NAME    = CSS (TIANHE)
OBJECT_ID      = 2021-035A
CENTER_NAME    = EARTH
REF_FRAME      = TEME
TIME_SYSTEM    = UTC
MEAN_ELEMENT_THEORY = SGP/SGP4

EPOCH          = 2025-12-10T06:43:57.761760
MEAN_MOTION    = 15.59014677
ECCENTRICITY   = .00088021
INCLINATION    = 41.4682
RA_OF_ASC_NODE = 31.6356
ARG_OF_PERICENTER = 10.5172
MEAN_ANOMALY   = 349.5849

EPHEMERIS_TYPE = 0
CLASSIFICATION_TYPE = U
NORAD_CAT_ID   = 48274
ELEMENT_SET_NO = 999
REV_AT_EPOCH   = 26364
BSTAR          = .43406543E-3
MEAN_MOTION_DOT = .34646E-3
MEAN_MOTION_DDOT = 0

CCSDS_OMM_VERS = 2.0
CREATION_DATE  = 
ORIGINATOR     = 

OBJECT_NAME    = COSMOS 2550
OBJECT_ID      = 2021-056A
CENTER_NAME    = EARTH
REF_FRAME      = TEME
TIME_SYSTEM    = UTC
MEAN_ELEMENT_THEORY = SGP/SGP4

EPOCH          = 2025-12-09T08:02:46.062240
MEAN_MOTION    = 15.33838976
ECCENTRICITY   = .0008326
INCLINATION    = 67.1455
RA_OF_ASC_NODE = 314.2314
ARG_OF_PERICENTER = 269.7288
MEAN_ANOMALY   = 90.2912

EPHEMERIS_TYPE = 0
CLASSIFICATION_TYPE = U
NORAD_CAT_ID   = 48865
ELEMENT_SET_NO = 999
REV_AT_EPOCH   = 24960
BSTAR          = .63535E-5
MEAN_MOTION_DOT = .17E-6
MEAN_MOTION_DDOT = 0

CCSDS_OMM_VERS = 2.0
CREATION_DATE  = 
ORIGINATOR     = 

OBJECT_NAME    = CZ-2C R/B
OBJECT_ID      = 2022-058K
CENTER_NAME    = EARTH
REF_FRAME      = TEME
TIME_SYSTEM    = UTC
MEAN_ELEMENT_THEORY = SGP/SGP4

EPOCH          = 2025-12-10T05:25:12.252000
MEAN_MOTION    = 15.48324044
ECCENTRICITY   = .00456651
INCLINATION    = 50.1906
RA_OF_ASC_NODE = 56.3678
ARG_OF_PERICENTER = 188.0814
MEAN_ANOMALY   = 171.9424

EPHEMERIS_TYPE = 0
CLASSIFICATION_TYPE = U
NORAD_CAT_ID   = 52794
ELEMENT_SET_NO = 999
REV_AT_EPOCH   = 19624
BSTAR          = .6345533E-3
MEAN_MOTION_DOT = .35321E-3
MEAN_MOTION_DDOT = 0

